{
  "type": "FeatureCollection",
  "features": [
    {
      "type": "Feature",
      "properties": {
        "norad_id": 40794,
        "name": "COSMOS 2251 DEB",
        "group": "cosmos-2251-debris",
        "lat": -53.90546168732111,
        "lon": 80.41758831130024,
        "alt_km": 588.4133170721079,
        "timestamp": "2025-12-22T22:44:21.377575+00:00",
        "meta_object_name": "COSMOS 2251 DEB",
        "meta_object_id": "1993-036BVX",
        "meta_epoch": "2025-12-13T15:37:41.141568",
        "meta_mean_motion": 14.93159868,
        "meta_eccentricity": 0.00107848,
        "meta_inclination": 73.9763,
        "meta_ra_of_asc_node": 122.399,
        "meta_arg_of_pericenter": 261.0962,
        "meta_mean_anomaly": 116.104,
        "meta_ephemeris_type": 0,
        "meta_classification_type": "U",
        "meta_norad_cat_id": 40794,
        "meta_element_set_no": 999,
        "meta_rev_at_epoch": 61938,
        "meta_bstar": 0.0047306735,
        "meta_mean_motion_dot": 0.00049759,
        "meta_mean_motion_ddot": 0,
        "tle_line1": "1 40794U 93036BVX 25347.65117062  .00049759  00000+0  47307-2 0  9990",
        "tle_line2": "2 40794  73.9763 122.3990 0010784 261.0962 116.1040 14.93159868619387"
      },
      "geometry": {
        "type": "Point",
        "coordinates": [
          80.41758831130024,
          -53.90546168732111
        ]
      }
    },
    {
      "type": "Feature",
      "properties": {
        "norad_id": 40796,
        "name": "COSMOS 2251 DEB",
        "group": "cosmos-2251-debris",
        "lat": -73.99303953775099,
        "lon": 29.91511870004972,
        "alt_km": 592.1614790497051,
        "timestamp": "2025-12-22T22:44:21.377585+00:00",
        "meta_object_name": "COSMOS 2251 DEB",
        "meta_object_id": "1993-036BVZ",
        "meta_epoch": "2025-12-22T02:53:41.429760",
        "meta_mean_motion": 14.81825001,
        "meta_eccentricity": 0.00560746,
        "meta_inclination": 74.0133,
        "meta_ra_of_asc_node": 123.6327,
        "meta_arg_of_pericenter": 258.6437,
        "meta_mean_anomaly": 281.5716,
        "meta_ephemeris_type": 0,
        "meta_classification_type": "U",
        "meta_norad_cat_id": 40796,
        "meta_element_set_no": 999,
        "meta_rev_at_epoch": 76297,
        "meta_bstar": 0.0010167245,
        "meta_mean_motion_dot": 8.229e-05,
        "meta_mean_motion_ddot": 0,
        "tle_line1": "1 40796U 93036BVZ 25356.12061840  .00008229  00000+0  10167-2 0  9997",
        "tle_line2": "2 40796  74.0133 123.6327 0056074 258.6437 281.5716 14.81825001762978"
      },
      "geometry": {
        "type": "Point",
        "coordinates": [
          29.91511870004972,
          -73.99303953775099
        ]
      }
    },
    {
      "type": "Feature",
      "properties": {
        "norad_id": 40797,
        "name": "COSMOS 2251 DEB",
        "group": "cosmos-2251-debris",
        "lat": -12.614705253194256,
        "lon": 70.33818735124197,
        "alt_km": 485.911648777289,
        "timestamp": "2025-12-22T22:44:21.377595+00:00",
        "meta_object_name": "COSMOS 2251 DEB",
        "meta_object_id": "1993-036BWA",
        "meta_epoch": "2025-12-21T22:58:09.285888",
        "meta_mean_motion": 15.11502821,
        "meta_eccentricity": 0.0072228,
        "meta_inclination": 73.9213,
        "meta_ra_of_asc_node": 76.1019,
        "meta_arg_of_pericenter": 345.6422,
        "meta_mean_anomaly": 14.2715,
        "meta_ephemeris_type": 0,
        "meta_classification_type": "U",
        "meta_norad_cat_id": 40797,
        "meta_element_set_no": 999,
        "meta_rev_at_epoch": 64783,
        "meta_bstar": 0.00074207,
        "meta_mean_motion_dot": 0.00013364,
        "meta_mean_motion_ddot": 0,
        "tle_line1": "1 40797U 93036BWA 25355.95705192  .00013364  00000+0  74207-3 0  9995",
        "tle_line2": "2 40797  73.9213  76.1019 0072228 345.6422  14.2715 15.11502821647839"
      },
      "geometry": {
        "type": "Point",
        "coordinates": [
          70.33818735124197,
          -12.614705253194256
        ]
      }
    },
    {
      "type": "Feature",
      "properties": {
        "norad_id": 40799,
        "name": "COSMOS 2251 DEB",
        "group": "cosmos-2251-debris",
        "lat": 6.98962563556032,
        "lon": -104.44433394517759,
        "alt_km": 646.0999149013105,
        "timestamp": "2025-12-22T22:44:21.377605+00:00",
        "meta_object_name": "COSMOS 2251 DEB",
        "meta_object_id": "1993-036BWC",
        "meta_epoch": "2025-12-21T12:16:32.969280",
        "meta_mean_motion": 14.96732906,
        "meta_eccentricity": 0.01194154,
        "meta_inclination": 73.9265,
        "meta_ra_of_asc_node": 80.504,
        "meta_arg_of_pericenter": 320.5269,
        "meta_mean_anomaly": 38.7259,
        "meta_ephemeris_type": 0,
        "meta_classification_type": "U",
        "meta_norad_cat_id": 40799,
        "meta_element_set_no": 999,
        "meta_rev_at_epoch": 50108,
        "meta_bstar": 0.00030092345,
        "meta_mean_motion_dot": 3.932e-05,
        "meta_mean_motion_ddot": 0,
        "tle_line1": "1 40799U 93036BWC 25355.51149270  .00003932  00000+0  30092-3 0  9992",
        "tle_line2": "2 40799  73.9265  80.5040 0119415 320.5269  38.7259 14.96732906501083"
      },
      "geometry": {
        "type": "Point",
        "coordinates": [
          -104.44433394517759,
          6.98962563556032
        ]
      }
    },
    {
      "type": "Feature",
      "properties": {
        "norad_id": 40802,
        "name": "COSMOS 2251 DEB",
        "group": "cosmos-2251-debris",
        "lat": -57.25653464695422,
        "lon": -20.588980752452656,
        "alt_km": 600.0476302264879,
        "timestamp": "2025-12-22T22:44:21.377615+00:00",
        "meta_object_name": "COSMOS 2251 DEB",
        "meta_object_id": "1993-036BWF",
        "meta_epoch": "2025-12-20T16:01:50.950848",
        "meta_mean_motion": 14.77686845,
        "meta_eccentricity": 0.00629069,
        "meta_inclination": 74.0403,
        "meta_ra_of_asc_node": 137.4571,
        "meta_arg_of_pericenter": 234.6618,
        "meta_mean_anomaly": 124.8667,
        "meta_ephemeris_type": 0,
        "meta_classification_type": "U",
        "meta_norad_cat_id": 40802,
        "meta_element_set_no": 999,
        "meta_rev_at_epoch": 64526,
        "meta_bstar": 0.0005156342,
        "meta_mean_motion_dot": 3.783e-05,
        "meta_mean_motion_ddot": 0,
        "tle_line1": "1 40802U 93036BWF 25354.66795082  .00003783  00000+0  51563-3 0  9990",
        "tle_line2": "2 40802  74.0403 137.4571 0062906 234.6618 124.8667 14.77686845645268"
      },
      "geometry": {
        "type": "Point",
        "coordinates": [
          -20.588980752452656,
          -57.25653464695422
        ]
      }
    },
    {
      "type": "Feature",
      "properties": {
        "norad_id": 40803,
        "name": "COSMOS 2251 DEB",
        "group": "cosmos-2251-debris",
        "lat": -32.86935084150515,
        "lon": -136.6757176145537,
        "alt_km": 705.0075024635726,
        "timestamp": "2025-12-22T22:44:21.377625+00:00",
        "meta_object_name": "COSMOS 2251 DEB",
        "meta_object_id": "1993-036BWG",
        "meta_epoch": "2025-12-21T09:22:13.076832",
        "meta_mean_motion": 14.51837554,
        "meta_eccentricity": 0.00343739,
        "meta_inclination": 74.0142,
        "meta_ra_of_asc_node": 35.5847,
        "meta_arg_of_pericenter": 250.91,
        "meta_mean_anomaly": 108.8338,
        "meta_ephemeris_type": 0,
        "meta_classification_type": "U",
        "meta_norad_cat_id": 40803,
        "meta_element_set_no": 999,
        "meta_rev_at_epoch": 58878,
        "meta_bstar": 0.0002337407,
        "meta_mean_motion_dot": 9.19e-06,
        "meta_mean_motion_ddot": 0,
        "tle_line1": "1 40803U 93036BWG 25355.39042913  .00000919  00000+0  23374-3 0  9997",
        "tle_line2": "2 40803  74.0142  35.5847 0034373 250.9100 108.8338 14.51837554588784"
      },
      "geometry": {
        "type": "Point",
        "coordinates": [
          -136.6757176145537,
          -32.86935084150515
        ]
      }
    },
    {
      "type": "Feature",
      "properties": {
        "norad_id": 40808,
        "name": "COSMOS 2251 DEB",
        "group": "cosmos-2251-debris",
        "lat": -12.509437974217812,
        "lon": 122.12544895015245,
        "alt_km": 678.6258080777488,
        "timestamp": "2025-12-22T22:44:21.377635+00:00",
        "meta_object_name": "COSMOS 2251 DEB",
        "meta_object_id": "1993-036BWM",
        "meta_epoch": "2025-12-21T15:48:05.753088",
        "meta_mean_motion": 14.67620191,
        "meta_eccentricity": 0.0008403,
        "meta_inclination": 74.0423,
        "meta_ra_of_asc_node": 128.2531,
        "meta_arg_of_pericenter": 163.7615,
        "meta_mean_anomaly": 215.4081,
        "meta_ephemeris_type": 0,
        "meta_classification_type": "U",
        "meta_norad_cat_id": 40808,
        "meta_element_set_no": 999,
        "meta_rev_at_epoch": 63750,
        "meta_bstar": 0.0013229,
        "meta_mean_motion_dot": 7.499e-05,
        "meta_mean_motion_ddot": 0,
        "tle_line1": "1 40808U 93036BWM 25355.65839992  .00007499  00000+0  13229-2 0  9999",
        "tle_line2": "2 40808  74.0423 128.2531 0008403 163.7615 215.4081 14.67620191637507"
      },
      "geometry": {
        "type": "Point",
        "coordinates": [
          122.12544895015245,
          -12.509437974217812
        ]
      }
    }
  ]
}